STARLINK-4685           
1 53709U 22107K   22259.91667824  .00058623  00000+0  41995-3 0  9993
2 53709  53.2142 214.6081 0001183 123.8351 322.3854 15.73158163  1302
STARLINK-4696           
1 53710U 22107L   22260.25001157  .00202057  26197-4  62418-3 0  9990
2 53710  53.2128 212.2637 0007759 315.4506 198.8668 15.91326304  2040
STARLINK-4627           
1 53711U 22107M   22259.91667824  .00058619  00000+0  42000-3 0  9999
2 53711  53.2142 214.6093 0001426 111.3728 334.2255 15.73153439  1306
STARLINK-4683           
1 53712U 22107N   22260.25001157  .00084840  00000+0  60375-3 0  9990
2 53712  53.2144 212.9594 0001287 106.2797  69.4388 15.73163936  2038
STARLINK-4698           
1 53713U 22107P   22260.25001157  .00087462  00000+0  62229-3 0  9994
2 53713  53.2141 212.9645 0001317 102.5221  70.7718 15.73155819  2031
STARLINK-4688           
1 53714U 22107Q   22260.25001157  .00087728  00000+0  62436-3 0  9990
2 53714  53.2144 212.9630 0001090  96.4774  77.4667 15.73147993  2032
STARLINK-4686           
1 53715U 22107R   22259.91667824  .00029973  00000+0  21767-3 0  9991
2 53715  53.2141 214.6151 0001299 112.0520 330.6197 15.73150409  1309
STARLINK-4699           
1 53716U 22107S   22260.25001157  .00087668  00000+0  62460-3 0  9992
2 53716  53.2143 212.9666 0001014 100.7060  71.5064 15.73123320  2028
STARLINK-4702           
1 53717U 22107T   22260.25001157  .00188399  24204-4  58458-3 0  9995
2 53717  53.2125 212.2707 0008095 318.5991 192.3933 15.91258644  2021
STARLINK-4695           
1 53718U 22107U   22260.25001157  .00061143  00000+0  43769-3 0  9995
2 53718  53.2142 212.9654 0001090 101.0563  71.7399 15.73157455  2021
STARLINK-4644           
1 53719U 22107V   22260.25001157  .00172824  21837-4  59001-3 0  9997
2 53719  53.2124 212.3417 0008013 285.5361 191.0994 15.89419498  2021
STARLINK-4642           
1 53720U 22107W   22259.91667824  .00057003  00000+0  40887-3 0  9996
2 53720  53.2141 214.6165 0001374 109.8636 332.2295 15.73139015  1303
STARLINK-4707           
1 53721U 22107X   22260.25001157  .00085843  00000+0  61200-3 0  9992
2 53721  53.2142 212.9756 0001236 106.7762  61.1126 15.73116461  2026
STARLINK-4700           
1 53722U 22107Y   22260.25001157  .00017991  00000+0  13238-3 0  9990
2 53722  53.2142 212.9730 0000992 111.9549  57.2427 15.73190499  2021
STARLINK-4705           
1 53723U 22107Z   22260.25001157  .00086282  00000+0  61519-3 0  9995
2 53723  53.2141 212.9782 0001187 107.2792  59.4085 15.73112022  2023
STARLINK-4663           
1 53724U 22107AA  22259.91667824  .00056796  00000+0  40734-3 0  9999
2 53724  53.2139 214.6217 0001578 113.9534 325.6471 15.73143181  1302
STARLINK-4704           
1 53725U 22107AB  22260.25001157  .00186702  23955-4  58153-3 0  9994
2 53725  53.2122 212.2736 0008196 318.8612 190.8267 15.91186229  2026
STARLINK-4697           
1 53726U 22107AC  22260.25001157  .00072912  00000+0  51940-3 0  9990
2 53726  53.2140 212.9769 0001356  97.3190  69.9896 15.73200740  2020
STARLINK-4701           
1 53727U 22107AD  22260.25001157  .00076002  00000+0  54201-3 0  9998
2 53727  53.2141 212.9815 0000999 108.2245  56.7186 15.73158581  2020
STARLINK-4640           
1 53728U 22107AE  22260.25001157  .00076312  00000+0  54419-3 0  9994
2 53728  53.2141 212.9803 0001164 109.0375  56.4766 15.73157982  2021
STARLINK-4651           
1 53729U 22107AF  22259.91667824  .00056369  00000+0  40441-3 0  9995
2 53729  53.2138 214.6326 0001461 112.8670 321.4352 15.73138483  1308
STARLINK-4641           
1 53730U 22107AG  22260.25001157  .00051440  00000+0  36934-3 0  9994
2 53730  53.2140 212.9829 0001309 101.7011  62.6393 15.73158307  2025
STARLINK-4636           
1 53731U 22107AH  22260.25001157  .00087396  00000+0  62229-3 0  9990
2 53731  53.2141 212.9878 0001410  97.9016  64.0794 15.73138268  2020
STARLINK-4661           
1 53732U 22107AJ  22260.25001157  .00048506  00000+0  34810-3 0  9996
2 53732  53.2141 212.9841 0001088 105.5138  58.2270 15.73195214  2021
STARLINK-4574           
1 53733U 22107AK  22259.91667824  .00056323  00000+0  40385-3 0  9997
2 53733  53.2137 214.6377 0001301  99.9153 332.0276 15.73152571  1309
STARLINK-4616           
1 53734U 22107AL  22259.91667824  .00055727  00000+0  39959-3 0  9990
2 53734  53.2139 214.6339 0001017 115.8850 317.8485 15.73156073  1300
STARLINK-4618           
1 53735U 22107AM  22259.91667824  .00055996  00000+0  40202-3 0  9992
2 53735  53.2137 214.6402 0001423 117.5665 313.1260 15.73124712  1309
STARLINK-4652           
1 53736U 22107AN  22259.91667824  .00056503  00000+0  40568-3 0  9993
2 53736  53.2139 214.6365 0001345 108.3028 324.2110 15.73119762  1300
STARLINK-4646           
1 53737U 22107AP  22259.91667824  .00085413  00000+0  60811-3 0  9999
2 53737  53.2137 214.6416 0001414 112.1165 318.0016 15.73149959  1305
STARLINK-4662           
1 53738U 22107AQ  22260.25001157  .00088096  00000+0  62740-3 0  9993
2 53738  53.2141 212.9915 0001259  87.2887  72.8732 15.73130481  2026
STARLINK-4613           
1 53739U 22107AR  22260.16002342  .00160207  20594-4  49441-3 0  9994
2 53739  53.2121 212.7161 0008104 317.0962  42.9433 15.91424827  1935
STARLINK-4607           
1 53740U 22107AS  22260.25001157 -.00025946  00000+0 -18081-3 0  9992
2 53740  53.2139 212.9950 0001108 110.8636  47.5469 15.73227634  2026
STARLINK-4614           
1 53741U 22107AT  22260.25001157  .00069946  00000+0  49939-3 0  9995
2 53741  53.2139 212.9989 0001325  82.2140  74.4227 15.73165040  2025
STARLINK-4637           
1 53742U 22107AU  22259.91667824  .00064231  00000+0  45961-3 0  9999
2 53742  53.2139 214.6438 0001370 120.2882 308.6041 15.73146941  1305
STARLINK-4645           
1 53743U 22107AV  22260.25001157  .00086552  00000+0  61674-3 0  9999
2 53743  53.2138 213.0016 0001342 105.8163  49.5551 15.73124843  2024
STARLINK-4670           
1 53744U 22107AW  22260.25001157  .00087813  00000+0  62541-3 0  9995
2 53744  53.2140 212.9978 0001491  89.3926  67.7992 15.73130699  2028
STARLINK-4656           
1 53745U 22107AX  22259.91667824  .00056664  00000+0  40650-3 0  9993
2 53745  53.2136 214.6503 0001316 115.9313 309.9606 15.73138103  1300
STARLINK-4589           
1 53746U 22107AY  22259.91667824  .00058120  00000+0  41597-3 0  9994
2 53746  53.2138 214.6478 0001146 121.6530 305.3549 15.73182887  1304
STARLINK-4657           
1 53747U 22107AZ  22260.25001157  .00333541  54261-4  89495-3 0  9990
2 53747  53.2120 212.1669 0006900 307.2674 253.5402 15.93905703  2030
STARLINK-4669           
1 53748U 22107BA  22260.25001157  .00086001  00000+0  61274-3 0  9999
2 53748  53.2138 213.0039 0001333 104.7649  49.4539 15.73130368  2025
STARLINK-4680           
1 53749U 22107BB  22260.25001157  .00007736  00000+0  59499-4 0  9995
2 53749  53.2137 213.0050 0001118  80.6028  73.0711 15.73194090  2029
STARLINK-4612           
1 53750U 22107BC  22259.91667824  .00056238  00000+0  40326-3 0  9996
2 53750  53.2139 214.6537 0001285  94.0804 330.0531 15.73152105  1303
FALCON 9 DEB            
1 53751U 22107BD  22260.15584243  .00206208  27087-4  59855-3 0  9998
2 53751  53.2128 212.6871 0007316 311.9136  48.1268 15.92524098  1939
SHERPA-LTC2             
1 53752U 22107BE  22260.16412691  .00199621  25835-4  61503-3 0  9999
2 53752  53.2108 212.7434 0010462 328.1940  31.8455 15.91336380  1934
FALCON 9 DEB            
1 53753U 22107BF  22259.78376284  .00243164  33210-4  72447-3 0  9990
2 53753  53.2099 214.6358 0009955 308.4194  51.5940 15.91935095  1865
FALCON 9 DEB            
1 53754U 22107BG  22259.79097482  .00115062  15860-4  39338-3 0  9990
2 53754  53.2134 214.6852 0009668 312.8988  47.1226 15.89558587  1868
FALCON 9 DEB            
1 53755U 22107BH  22259.77572319  .00259382  36726-4  72531-3 0  9996
2 53755  53.2073 214.5820 0005460 311.8649  48.1913 15.93193885  1869
FALCON 9 DEB            
1 53756U 22107BJ  22260.14983283  .00251292  35292-4  68459-3 0  9999
2 53756  53.2072 212.6481 0006358 294.9318  65.1050 15.93685119  1937
CENTISPACE-1 S3         
1 53757U 22108A   22260.25187061  .00000317  00000+0  10767-3 0  9996
2 53757  53.5341 300.7566 0008745 309.6388  50.3793 14.58247829  1624
CENTISPACE-1 S4         
1 53758U 22108B   22260.25597000  .00000522  00000+0  15341-3 0  9996
2 53758  53.5312 300.7758 0008475 292.7890  67.2169 14.57713448  1624
KZ-1A R/B               
1 53759U 22108C   22260.30019523  .00427168  99622-5  68313-3 0  9992
2 53759  53.5644 294.8029 0377200 112.9596 251.1673 15.37462651  1718
YAOGAN-35 05A           
1 53760U 22109A   22260.17886001  .00013340  00000+0  55018-3 0  9990
2 53760  34.9989 316.3521 0007436 356.2889  35.1905 15.23227557  1684
YAOGAN-35 05B           
1 53761U 22109B   22259.22650701  .00011504  00000+0  47563-3 0  9997
2 53761  34.9982 322.2938 0005796   0.6145 221.1280 15.23179314  1497
CZ-2D DEB               
1 53762U 22109C   22260.24182966  .00021550  00000+0  86868-3 0  9998
2 53762  35.0012 315.8962 0008879   8.0001  32.7234 15.23912417  1659
YAOGAN-35 05C           
1 53763U 22109D   22260.18118481  .00008951  00000+0  37098-3 0  9994
2 53763  34.9978 316.3257 0006386   8.5165  40.3189 15.23137536  1643
CZ-2D R/B               
1 53764U 22109E   22260.24365619  .00037009  00000+0  14909-2 0  9990
2 53764  35.0007 315.9031 0009704   1.9551  39.6437 15.23831662  1656
EUTELSAT KONNECT VHTS   
1 53765U 22110A   22259.47527109 -.00000336  00000+0 -35041-4 0  9997
2 53765   3.4197 143.7658 8077229 178.1070 119.9266  1.18581547   100
ARIANE 5 R/B            
1 53766U 22110B   22259.32165268  .00000691  00000+0  17794-2 0  9991
2 53766   3.2102 149.4362 8157618 172.3233 221.9610  1.26364112   112
1998-067UE              
1 53767U 98067UE  22257.79445881  .00034525  00000+0  58173-3 0  9997
2 53767  51.6413 252.5962 0003354 305.0520  55.0155 15.51350713  1307
